start=new Date('2022-06-11T00:00:00.000Z').valueOf();
sats=[{"BSTAR":"0.00001239400000","PERIOD":"91.531","LAUNCH_DATE":"2022-05-06","NORAD_CAT_ID":"52500","OBJECT_TYPE":"PAYLOAD","TLE_LINE1":"1 52500U 22049BB  22161.91667824  .00001121  00000-0  12394-4 0  9992","ECCENTRICITY":"0.00019460","OBJECT_NAME":"STARLINK-3866","COUNTRY_CODE":"US","RCS_SIZE":"LARGE","DECAY_DATE":null,"EPOCH":"2022-06-10T22:00:00.999936","REV_AT_EPOCH":"130","TIME_SYSTEM":"UTC","CENTER_NAME":"EARTH","RA_OF_ASC_NODE":"90.5245","OBJECT_ID":"2022-049BB","MEAN_MOTION":"15.73235275","MEAN_MOTION_DDOT":"0.0000000000000","APOAPSIS":"350.969","MEAN_ANOMALY":"6.1474","SITE":"AFETR","ARG_OF_PERICENTER":"33.7486","GP_ID":"205866859","CLASSIFICATION_TYPE":"U","SEMIMAJOR_AXIS":"6727.795","EPHEMERIS_TYPE":"0","INCLINATION":"53.2172","MEAN_ELEMENT_THEORY":"SGP4","REF_FRAME":"TEME","PERIAPSIS":"348.350","MEAN_MOTION_DOT":"0.00001121","TLE_LINE2":"2 52500  53.2172  90.5245 0001946  33.7486   6.1474 15.73235275  1306","ELEMENT_SET_NO":"999","FILE":"3490466"},{"RCS_SIZE":"LARGE","DECAY_DATE":null,"EPOCH":"2022-06-10T22:00:00.999936","REV_AT_EPOCH":"130","TIME_SYSTEM":"UTC","CENTER_NAME":"EARTH","RA_OF_ASC_NODE":"90.5301","OBJECT_ID":"2022-049BC","MEAN_MOTION":"15.73311157","BSTAR":"-0.00073777000000","LAUNCH_DATE":"2022-05-06","PERIOD":"91.527","NORAD_CAT_ID":"52501","OBJECT_TYPE":"PAYLOAD","TLE_LINE1":"1 52501U 22049BC  22161.91667824 -.00103398  00000-0 -73777-3 0  9995","OBJECT_NAME":"STARLINK-3907","ECCENTRICITY":"0.00019660","COUNTRY_CODE":"US","EPHEMERIS_TYPE":"0","SEMIMAJOR_AXIS":"6727.578","MEAN_ELEMENT_THEORY":"SGP4","INCLINATION":"53.2180","PERIAPSIS":"348.121","REF_FRAME":"TEME","TLE_LINE2":"2 52501  53.2180  90.5301 0001966  37.7897   0.1175 15.73311157  1307","MEAN_MOTION_DOT":"-0.00103398","FILE":"3490466","ELEMENT_SET_NO":"999","APOAPSIS":"350.766","MEAN_MOTION_DDOT":"0.0000000000000","MEAN_ANOMALY":"0.1175","SITE":"AFETR","ARG_OF_PERICENTER":"37.7897","GP_ID":"205866226","CLASSIFICATION_TYPE":"U"},{"GP_ID":"205866676","CLASSIFICATION_TYPE":"U","ARG_OF_PERICENTER":"42.9539","MEAN_MOTION_DDOT":"0.0000000000000","APOAPSIS":"350.546","SITE":"AFETR","MEAN_ANOMALY":"358.1987","FILE":"3490466","ELEMENT_SET_NO":"999","PERIAPSIS":"348.640","REF_FRAME":"TEME","TLE_LINE2":"2 52502  53.2166  90.5205 0001416  42.9539 358.1987 15.73258644  1304","MEAN_MOTION_DOT":"-0.00068706","EPHEMERIS_TYPE":"0","SEMIMAJOR_AXIS":"6727.728","INCLINATION":"53.2166","MEAN_ELEMENT_THEORY":"SGP4","ECCENTRICITY":"0.00014160","TLE_LINE1":"1 52502U 22049BD  22161.91667824 -.00068706  00000-0 -48788-3 0  9993","OBJECT_NAME":"STARLINK-3912","COUNTRY_CODE":"US","OBJECT_TYPE":"PAYLOAD","NORAD_CAT_ID":"52502","BSTAR":"-0.00048788000000","LAUNCH_DATE":"2022-05-06","PERIOD":"91.530","OBJECT_ID":"2022-049BD","MEAN_MOTION":"15.73258644","RA_OF_ASC_NODE":"90.5205","EPOCH":"2022-06-10T22:00:00.999936","DECAY_DATE":null,"REV_AT_EPOCH":"130","CENTER_NAME":"EARTH","TIME_SYSTEM":"UTC","RCS_SIZE":"LARGE"},{"RA_OF_ASC_NODE":"90.5216","MEAN_MOTION":"15.73273215","OBJECT_ID":"2022-049BE","RCS_SIZE":"LARGE","REV_AT_EPOCH":"130","TIME_SYSTEM":"UTC","CENTER_NAME":"EARTH","EPOCH":"2022-06-10T22:00:00.999936","DECAY_DATE":null,"OBJECT_TYPE":"PAYLOAD","COUNTRY_CODE":"US","OBJECT_NAME":"STARLINK-3861","TLE_LINE1":"1 52503U 22049BE  22161.91667824 -.00069939  00000-0 -49646-3 0  9997","ECCENTRICITY":"0.00016390","PERIOD":"91.529","LAUNCH_DATE":"2022-05-06","BSTAR":"-0.00049646000000","NORAD_CAT_ID":"52503","MEAN_MOTION_DOT":"-0.00069939","TLE_LINE2":"2 52503  53.2166  90.5216 0001639  34.1761   6.3537 15.73273215  1308","PERIAPSIS":"348.449","REF_FRAME":"TEME","ELEMENT_SET_NO":"999","FILE":"3490466","MEAN_ELEMENT_THEORY":"SGP4","INCLINATION":"53.2166","SEMIMAJOR_AXIS":"6727.686","EPHEMERIS_TYPE":"0","ARG_OF_PERICENTER":"34.1761","CLASSIFICATION_TYPE":"U","GP_ID":"205866466","SITE":"AFETR","MEAN_ANOMALY":"6.3537","APOAPSIS":"350.654","MEAN_MOTION_DDOT":"0.0000000000000"},{"EPHEMERIS_TYPE":"0","SEMIMAJOR_AXIS":"6774.813","INCLINATION":"53.2173","MEAN_ELEMENT_THEORY":"SGP4","PERIAPSIS":"395.846","REF_FRAME":"TEME","TLE_LINE2":"2 52533  53.2173 155.1439 0001228  56.5935 280.5768 15.56885915  1308","MEAN_MOTION_DOT":"-0.00711539","FILE":"3490466","ELEMENT_SET_NO":"999","APOAPSIS":"397.510","MEAN_MOTION_DDOT":"0.0000000000000","MEAN_ANOMALY":"280.5768","SITE":"AFWTR","ARG_OF_PERICENTER":"56.5935","GP_ID":"205866787","CLASSIFICATION_TYPE":"U","RCS_SIZE":"LARGE","EPOCH":"2022-06-10T22:00:00.999936","DECAY_DATE":null,"REV_AT_EPOCH":"130","TIME_SYSTEM":"UTC","CENTER_NAME":"EARTH","RA_OF_ASC_NODE":"155.1439","OBJECT_ID":"2022-051A","MEAN_MOTION":"15.56885915","BSTAR":"-0.01061500000000","LAUNCH_DATE":"2022-05-13","PERIOD":"92.492","NORAD_CAT_ID":"52533","OBJECT_TYPE":"PAYLOAD","TLE_LINE1":"1 52533U 22051A   22161.91667824 -.00711539  00000-0 -10615-1 0  9995","ECCENTRICITY":"0.00012280","OBJECT_NAME":"STARLINK-3951","COUNTRY_CODE":"US"},{"REV_AT_EPOCH":"130","CENTER_NAME":"EARTH","TIME_SYSTEM":"UTC","EPOCH":"2022-06-10T22:00:00.999936","DECAY_DATE":null,"RCS_SIZE":"LARGE","MEAN_MOTION":"15.56876565","OBJECT_ID":"2022-051B","RA_OF_ASC_NODE":"155.1292","NORAD_CAT_ID":"52534","PERIOD":"92.493","LAUNCH_DATE":"2022-05-13","BSTAR":"-0.01061500000000","COUNTRY_CODE":"US","TLE_LINE1":"1 52534U 22051B   22161.91667824 -.00711295  00000-0 -10615-1 0  9995","OBJECT_NAME":"STARLINK-3952","ECCENTRICITY":"0.00011470","OBJECT_TYPE":"PAYLOAD","MEAN_ELEMENT_THEORY":"SGP4","INCLINATION":"53.2173","SEMIMAJOR_AXIS":"6774.840","EPHEMERIS_TYPE":"0","ELEMENT_SET_NO":"999","FILE":"3490466","MEAN_MOTION_DOT":"-0.00711295","TLE_LINE2":"2 52534  53.2173 155.1292 0001147  64.7008 270.9322 15.56876565  1308","PERIAPSIS":"395.928","REF_FRAME":"TEME","SITE":"AFWTR","MEAN_ANOMALY":"270.9322","MEAN_MOTION_DDOT":"0.0000000000000","APOAPSIS":"397.482","CLASSIFICATION_TYPE":"U","GP_ID":"205866574","ARG_OF_PERICENTER":"64.7008"},{"MEAN_ELEMENT_THEORY":"SGP4","INCLINATION":"53.2173","EPHEMERIS_TYPE":"0","SEMIMAJOR_AXIS":"6774.827","FILE":"3490466","ELEMENT_SET_NO":"999","TLE_LINE2":"2 52535  53.2173 155.1379 0001162  62.8834 273.5182 15.56881228  1303","MEAN_MOTION_DOT":"-0.00711350","REF_FRAME":"TEME","PERIAPSIS":"395.904","SITE":"AFWTR","MEAN_ANOMALY":"273.5182","APOAPSIS":"397.479","MEAN_MOTION_DDOT":"0.0000000000000","CLASSIFICATION_TYPE":"U","GP_ID":"205866336","ARG_OF_PERICENTER":"62.8834","REV_AT_EPOCH":"130","CENTER_NAME":"EARTH","TIME_SYSTEM":"UTC","EPOCH":"2022-06-10T22:00:00.999936","DECAY_DATE":null,"RCS_SIZE":"LARGE","MEAN_MOTION":"15.56881228","OBJECT_ID":"2022-051C","RA_OF_ASC_NODE":"155.1379","NORAD_CAT_ID":"52535","LAUNCH_DATE":"2022-05-13","PERIOD":"92.493","BSTAR":"-0.01061400000000","COUNTRY_CODE":"US","OBJECT_NAME":"STARLINK-3958","TLE_LINE1":"1 52535U 22051C   22161.91667824 -.00711350  00000-0 -10614-1 0  9997","ECCENTRICITY":"0.00011620","OBJECT_TYPE":"PAYLOAD"},{"OBJECT_TYPE":"PAYLOAD","COUNTRY_CODE":"US","TLE_LINE1":"1 52536U 22051D   22161.91667824 -.00711388  00000-0 -10611-1 0  9996","OBJECT_NAME":"STARLINK-3964","ECCENTRICITY":"0.00011490","PERIOD":"92.492","LAUNCH_DATE":"2022-05-13","BSTAR":"-0.01061100000000","NORAD_CAT_ID":"52536","RA_OF_ASC_NODE":"155.1452","MEAN_MOTION":"15.56890395","OBJECT_ID":"2022-051D","RCS_SIZE":"LARGE","REV_AT_EPOCH":"130","TIME_SYSTEM":"UTC","CENTER_NAME":"EARTH","EPOCH":"2022-06-10T22:00:00.999936","DECAY_DATE":null,"ARG_OF_PERICENTER":"68.0096","CLASSIFICATION_TYPE":"U","GP_ID":"205866124","MEAN_ANOMALY":"269.9294","SITE":"AFWTR","APOAPSIS":"397.443","MEAN_MOTION_DDOT":"0.0000000000000","MEAN_MOTION_DOT":"-0.00711388","TLE_LINE2":"2 52536  53.2173 155.1452 0001149  68.0096 269.9294 15.56890395  1307","PERIAPSIS":"395.887","REF_FRAME":"TEME","ELEMENT_SET_NO":"999","FILE":"3490466","MEAN_ELEMENT_THEORY":"SGP4","INCLINATION":"53.2173","SEMIMAJOR_AXIS":"6774.800","EPHEMERIS_TYPE":"0"},{"PERIAPSIS":"395.859","REF_FRAME":"TEME","MEAN_MOTION_DOT":"-0.00711383","TLE_LINE2":"2 52537  53.2173 155.1539 0001170  61.4768 277.2307 15.56895028  1306","ELEMENT_SET_NO":"999","FILE":"3490466","SEMIMAJOR_AXIS":"6774.787","EPHEMERIS_TYPE":"0","INCLINATION":"53.2173","MEAN_ELEMENT_THEORY":"SGP4","ARG_OF_PERICENTER":"61.4768","GP_ID":"205866863","CLASSIFICATION_TYPE":"U","APOAPSIS":"397.444","MEAN_MOTION_DDOT":"0.0000000000000","SITE":"AFWTR","MEAN_ANOMALY":"277.2307","RA_OF_ASC_NODE":"155.1539","OBJECT_ID":"2022-051E","MEAN_MOTION":"15.56895028","RCS_SIZE":"LARGE","DECAY_DATE":null,"EPOCH":"2022-06-10T22:00:00.999936","CENTER_NAME":"EARTH","REV_AT_EPOCH":"130","TIME_SYSTEM":"UTC","OBJECT_TYPE":"PAYLOAD","ECCENTRICITY":"0.00011700","TLE_LINE1":"1 52537U 22051E   22161.91667824 -.00711383  00000-0 -10609-1 0  9999","OBJECT_NAME":"STARLINK-3897","COUNTRY_CODE":"US","BSTAR":"-0.01060900000000","PERIOD":"92.492","LAUNCH_DATE":"2022-05-13","NORAD_CAT_ID":"52537"},{"EPHEMERIS_TYPE":"0","SEMIMAJOR_AXIS":"6774.760","INCLINATION":"53.2173","MEAN_ELEMENT_THEORY":"SGP4","FILE":"3490466","ELEMENT_SET_NO":"999","REF_FRAME":"TEME","PERIAPSIS":"395.845","TLE_LINE2":"2 52538  53.2173 155.1714 0001151  64.7907 275.4537 15.56904321  1304","MEAN_MOTION_DOT":"-0.00711422","MEAN_MOTION_DDOT":"0.0000000000000","APOAPSIS":"397.404","MEAN_ANOMALY":"275.4537","SITE":"AFWTR","GP_ID":"205866230","CLASSIFICATION_TYPE":"U","ARG_OF_PERICENTER":"64.7907","EPOCH":"2022-06-10T22:00:00.999936","DECAY_DATE":null,"REV_AT_EPOCH":"130","TIME_SYSTEM":"UTC","CENTER_NAME":"EARTH","RCS_SIZE":"LARGE","OBJECT_ID":"2022-051F","MEAN_MOTION":"15.56904321","RA_OF_ASC_NODE":"155.1714","NORAD_CAT_ID":"52538","BSTAR":"-0.01060600000000","LAUNCH_DATE":"2022-05-13","PERIOD":"92.491","TLE_LINE1":"1 52538U 22051F   22161.91667824 -.00711422  00000-0 -10606-1 0  9991","ECCENTRICITY":"0.00011510","OBJECT_NAME":"STARLINK-3933","COUNTRY_CODE":"US","OBJECT_TYPE":"PAYLOAD"}];
